[{"OBJECT_NAME":"STARLINK-31476","OBJECT_ID":"2024-073N","EPOCH":"2025-08-26T23:12:37.622304","MEAN_MOTION":15.27586013,"ECCENTRICITY":0.00013076,"INCLINATION":43.0022,"RA_OF_ASC_NODE":337.8531,"ARG_OF_PERICENTER":279.0459,"MEAN_ANOMALY":81.0245,"EPHEMERIS_TYPE":0,"CLASSIFICATION_TYPE":"U","NORAD_CAT_ID":59523,"ELEMENT_SET_NO":999,"REV_AT_EPOCH":7639,"BSTAR":4.579986e-5,"MEAN_MOTION_DOT":9.99e-6,"MEAN_MOTION_DDOT":0},{"OBJECT_NAME":"STARLINK-31376","OBJECT_ID":"2024-073P","EPOCH":"2025-08-27T06:00:02.000160","MEAN_MOTION":15.65846433,"ECCENTRICITY":0.00272796,"INCLINATION":42.9877,"RA_OF_ASC_NODE":321.7193,"ARG_OF_PERICENTER":26.6046,"MEAN_ANOMALY":339.8078,"EPHEMERIS_TYPE":0,"CLASSIFICATION_TYPE":"U","NORAD_CAT_ID":59524,"ELEMENT_SET_NO":999,"REV_AT_EPOCH":583,"BSTAR":0.0059432472,"MEAN_MOTION_DOT":0.00685619,"MEAN_MOTION_DDOT":0},{"OBJECT_NAME":"STARLINK-31538","OBJECT_ID":"2024-073Q","EPOCH":"2025-08-27T00:09:48.151584","MEAN_MOTION":15.27564772,"ECCENTRICITY":0.00013816,"INCLINATION":42.9973,"RA_OF_ASC_NODE":337.29,"ARG_OF_PERICENTER":124.9121,"MEAN_ANOMALY":235.186,"EPHEMERIS_TYPE":0,"CLASSIFICATION_TYPE":"U","NORAD_CAT_ID":59525,"ELEMENT_SET_NO":999,"REV_AT_EPOCH":7640,"BSTAR":-4.6079832e-5,"MEAN_MOTION_DOT":-1.529e-5,"MEAN_MOTION_DDOT":0},{"OBJECT_NAME":"STARLINK-31564","OBJECT_ID":"2024-073R","EPOCH":"2025-08-26T23:58:41.712960","MEAN_MOTION":15.27572151,"ECCENTRICITY":9.35e-5,"INCLINATION":43.0025,"RA_OF_ASC_NODE":337.2349,"ARG_OF_PERICENTER":268.5456,"MEAN_ANOMALY":91.5289,"EPHEMERIS_TYPE":0,"CLASSIFICATION_TYPE":"U","NORAD_CAT_ID":59526,"ELEMENT_SET_NO":999,"REV_AT_EPOCH":7640,"BSTAR":3.976952e-6,"MEAN_MOTION_DOT":-1.53e-6,"MEAN_MOTION_DDOT":0},{"OBJECT_NAME":"STARLINK-31452","OBJECT_ID":"2024-073S","EPOCH":"2025-08-26T23:27:26.499456","MEAN_MOTION":15.27574258,"ECCENTRICITY":9.931e-5,"INCLINATION":43.0016,"RA_OF_ASC_NODE":337.9306,"ARG_OF_PERICENTER":278.3659,"MEAN_ANOMALY":81.708,"EPHEMERIS_TYPE":0,"CLASSIFICATION_TYPE":"U","NORAD_CAT_ID":59527,"ELEMENT_SET_NO":999,"REV_AT_EPOCH":7639,"BSTAR":-6.92344e-6,"MEAN_MOTION_DOT":-4.52e-6,"MEAN_MOTION_DDOT":0},{"OBJECT_NAME":"STARLINK-31618","OBJECT_ID":"2024-073T","EPOCH":"2025-08-26T23:20:16.308672","MEAN_MOTION":15.34681078,"ECCENTRICITY":0.00080733,"INCLINATION":43.0033,"RA_OF_ASC_NODE":335.3087,"ARG_OF_PERICENTER":346.197,"MEAN_ANOMALY":13.8662,"EPHEMERIS_TYPE":0,"CLASSIFICATION_TYPE":"U","NORAD_CAT_ID":59528,"ELEMENT_SET_NO":999,"REV_AT_EPOCH":7642,"BSTAR":0.0031398892,"MEAN_MOTION_DOT":0.00109216,"MEAN_MOTION_DDOT":0},{"OBJECT_NAME":"STARLINK-31513","OBJECT_ID":"2024-073U","EPOCH":"2025-08-27T05:41:03.687072","MEAN_MOTION":15.2757278,"ECCENTRICITY":5.338e-5,"INCLINATION":43.0028,"RA_OF_ASC_NODE":332.9403,"ARG_OF_PERICENTER":291.9837,"MEAN_ANOMALY":68.0958,"EPHEMERIS_TYPE":0,"CLASSIFICATION_TYPE":"U","NORAD_CAT_ID":59529,"ELEMENT_SET_NO":999,"REV_AT_EPOCH":7647,"BSTAR":-3.7677173e-5,"MEAN_MOTION_DOT":-1.298e-5,"MEAN_MOTION_DDOT":0},{"OBJECT_NAME":"STARLINK-31392","OBJECT_ID":"2024-073V","EPOCH":"2025-08-26T13:36:35.799264","MEAN_MOTION":15.27579624,"ECCENTRICITY":0.00012889,"INCLINATION":43.0011,"RA_OF_ASC_NODE":340.0091,"ARG_OF_PERICENTER":287.5965,"MEAN_ANOMALY":72.4746,"EPHEMERIS_TYPE":0,"CLASSIFICATION_TYPE":"U","NORAD_CAT_ID":59530,"ELEMENT_SET_NO":999,"REV_AT_EPOCH":7633,"BSTAR":2.975728e-5,"MEAN_MOTION_DOT":5.57e-6,"MEAN_MOTION_DDOT":0},{"OBJECT_NAME":"STARLINK-31619","OBJECT_ID":"2024-073W","EPOCH":"2025-08-26T13:16:14.640672","MEAN_MOTION":15.27582873,"ECCENTRICITY":0.00014644,"INCLINATION":43.0017,"RA_OF_ASC_NODE":339.9056,"ARG_OF_PERICENTER":272.437,"MEAN_ANOMALY":87.6314,"EPHEMERIS_TYPE":0,"CLASSIFICATION_TYPE":"U","NORAD_CAT_ID":59531,"ELEMENT_SET_NO":999,"REV_AT_EPOCH":7745,"BSTAR":2.2731307e-5,"MEAN_MOTION_DOT":3.63e-6,"MEAN_MOTION_DDOT":0},{"OBJECT_NAME":"STARLINK-31509","OBJECT_ID":"2024-073Y","EPOCH":"2025-08-26T14:13:36.711264","MEAN_MOTION":15.2757566,"ECCENTRICITY":8.621e-5,"INCLINATION":43.0016,"RA_OF_ASC_NODE":340.2184,"ARG_OF_PERICENTER":296.2039,"MEAN_ANOMALY":63.8724,"EPHEMERIS_TYPE":0,"CLASSIFICATION_TYPE":"U","NORAD_CAT_ID":59533,"ELEMENT_SET_NO":999,"REV_AT_EPOCH":7633,"BSTAR":6.826085e-6,"MEAN_MOTION_DOT":-7.4e-7,"MEAN_MOTION_DDOT":0},{"OBJECT_NAME":"STARLINK-31734","OBJECT_ID":"2024-074A","EPOCH":"2025-08-26T14:21:59.756256","MEAN_MOTION":15.27581675,"ECCENTRICITY":0.00022106,"INCLINATION":43.0031,"RA_OF_ASC_NODE":354.4012,"ARG_OF_PERICENTER":284.2906,"MEAN_ANOMALY":75.77,"EPHEMERIS_TYPE":0,"CLASSIFICATION_TYPE":"U","NORAD_CAT_ID":59534,"ELEMENT_SET_NO":999,"REV_AT_EPOCH":7630,"BSTAR":2.2999493e-5,"MEAN_MOTION_DOT":3.7e-6,"MEAN_MOTION_DDOT":0},{"OBJECT_NAME":"STARLINK-31738","OBJECT_ID":"2024-074B","EPOCH":"2025-08-26T10:04:00.768576","MEAN_MOTION":15.27585961,"ECCENTRICITY":0.00014593,"INCLINATION":43.0057,"RA_OF_ASC_NODE":2.4787,"ARG_OF_PERICENTER":272.5245,"MEAN_ANOMALY":87.544,"EPHEMERIS_TYPE":0,"CLASSIFICATION_TYPE":"U","NORAD_CAT_ID":59535,"ELEMENT_SET_NO":999,"REV_AT_EPOCH":7619,"BSTAR":8.1511632e-5,"MEAN_MOTION_DOT":1.982e-5,"MEAN_MOTION_DDOT":0},{"OBJECT_NAME":"STARLINK-31721","OBJECT_ID":"2024-074C","EPOCH":"2025-08-27T01:48:36.705312","MEAN_MOTION":15.27568537,"ECCENTRICITY":2.015e-5,"INCLINATION":43.0001,"RA_OF_ASC_NODE":2.3368,"ARG_OF_PERICENTER":124.5594,"MEAN_ANOMALY":235.5277,"EPHEMERIS_TYPE":0,"CLASSIFICATION_TYPE":"U","NORAD_CAT_ID":59536,"ELEMENT_SET_NO":999,"REV_AT_EPOCH":7625,"BSTAR":-8.168484e-6,"MEAN_MOTION_DOT":-4.86e-6,"MEAN_MOTION_DDOT":0},{"OBJECT_NAME":"STARLINK-31737","OBJECT_ID":"2024-074D","EPOCH":"2025-08-26T08:53:14.520480","MEAN_MOTION":15.27575623,"ECCENTRICITY":0.00017302,"INCLINATION":43.0032,"RA_OF_ASC_NODE":6.5122,"ARG_OF_PERICENTER":274.7461,"MEAN_ANOMALY":85.3193,"EPHEMERIS_TYPE":0,"CLASSIFICATION_TYPE":"U","NORAD_CAT_ID":59537,"ELEMENT_SET_NO":999,"REV_AT_EPOCH":7614,"BSTAR":9.717648e-6,"MEAN_MOTION_DOT":5.0e-8,"MEAN_MOTION_DDOT":0},{"OBJECT_NAME":"STARLINK-31725","OBJECT_ID":"2024-074E","EPOCH":"2025-08-27T00:42:23.079456","MEAN_MOTION":15.27575813,"ECCENTRICITY":8.426e-5,"INCLINATION":43.0026,"RA_OF_ASC_NODE":352.1955,"ARG_OF_PERICENTER":283.0145,"MEAN_ANOMALY":77.0613,"EPHEMERIS_TYPE":0,"CLASSIFICATION_TYPE":"U","NORAD_CAT_ID":59538,"ELEMENT_SET_NO":999,"REV_AT_EPOCH":7636,"BSTAR":-3.2331819e-5,"MEAN_MOTION_DOT":-1.151e-5,"MEAN_MOTION_DDOT":0},{"OBJECT_NAME":"STARLINK-31539","OBJECT_ID":"2024-074F","EPOCH":"2025-08-27T00:51:26.233056","MEAN_MOTION":15.27586735,"ECCENTRICITY":0.00015178,"INCLINATION":43.0036,"RA_OF_ASC_NODE":2.9063,"ARG_OF_PERICENTER":273.6328,"MEAN_ANOMALY":86.435,"EPHEMERIS_TYPE":0,"CLASSIFICATION_TYPE":"U","NORAD_CAT_ID":59539,"ELEMENT_SET_NO":999,"REV_AT_EPOCH":7624,"BSTAR":4.064223e-5,"MEAN_MOTION_DOT":8.57e-6,"MEAN_MOTION_DDOT":0}]
