STARLINK-31476          
1 59523U 24073N   25238.96710211  .00000999  00000+0  45800-4 0  9994
2 59523  43.0022 337.8531 0001307 279.0459  81.0245 15.27586013 76397
STARLINK-31376          
1 59524U 24073P   25239.25002315  .00685619  00000+0  59432-2 0  9999
2 59524  42.9877 321.7193 0027279  26.6046 339.8078 15.65846433  5830
STARLINK-31538          
1 59525U 24073Q   25239.00680731 -.00001529  00000+0 -46080-4 0  9998
2 59525  42.9973 337.2900 0001381 124.9121 235.1860 15.27564772 76407
STARLINK-31564          
1 59526U 24073R   25238.99909390 -.00000153  00000+0  39770-5 0  9991
2 59526  43.0025 337.2349 0000935 268.5456  91.5289 15.27572151 76404
STARLINK-31452          
1 59527U 24073S   25238.97739004 -.00000452  00000+0 -69234-5 0  9994
2 59527  43.0016 337.9306 0000993 278.3659  81.7080 15.27574258 76391
STARLINK-31618          
1 59528U 24073T   25238.97241098  .00109216  00000+0  31399-2 0  9990
2 59528  43.0033 335.3087 0008073 346.1970  13.8662 15.34681078 76429
STARLINK-31513          
1 59529U 24073U   25239.23684823 -.00001298  00000+0 -37677-4 0  9998
2 59529  43.0028 332.9403 0000533 291.9837  68.0958 15.27572780 76477
STARLINK-31392          
1 59530U 24073V   25238.56708101  .00000557  00000+0  29757-4 0  9996
2 59530  43.0011 340.0091 0001288 287.5965  72.4746 15.27579624 76338
STARLINK-31619          
1 59531U 24073W   25238.55294723  .00000363  00000+0  22731-4 0  9996
2 59531  43.0017 339.9056 0001464 272.4370  87.6314 15.27582873 77455
STARLINK-31509          
1 59533U 24073Y   25238.59278601 -.00000074  00000+0  68261-5 0  9998
2 59533  43.0016 340.2184 0000862 296.2039  63.8724 15.27575660 76333
STARLINK-31734          
1 59534U 24074A   25238.59860829  .00000370  00000+0  22999-4 0  9994
2 59534  43.0031 354.4012 0002210 284.2906  75.7700 15.27581675 76303
STARLINK-31738          
1 59535U 24074B   25238.41945334  .00001982  00000+0  81512-4 0  9997
2 59535  43.0057   2.4787 0001459 272.5245  87.5440 15.27585961 76192
STARLINK-31721          
1 59536U 24074C   25239.07542483 -.00000486  00000+0 -81685-5 0  9991
2 59536  43.0001   2.3368 0000201 124.5594 235.5277 15.27568537 76253
STARLINK-31737          
1 59537U 24074D   25238.37030695  .00000005  00000+0  97176-5 0  9998
2 59537  43.0032   6.5122 0001730 274.7461  85.3193 15.27575623 76141
STARLINK-31725          
1 59538U 24074E   25239.02943379 -.00001151  00000+0 -32332-4 0  9991
2 59538  43.0026 352.1955 0000842 283.0145  77.0613 15.27575813 76364
STARLINK-31539          
1 59539U 24074F   25239.03572029  .00000857  00000+0  40642-4 0  9996
2 59539  43.0036   2.9063 0001517 273.6328  86.4350 15.27586735 76248
